#cP2017  1  1  0  0  0.00000000      96 ORBIT IGb08 HLM  IGS
## 1930      0.00000000   900.00000000 57754 0.0000000000000
+   32   G01G02G03G04G05G06G07G08G09G10G11G12G13G14G15G16G17
+        G18G19G20G21G22G23G24G25G26G27G28G29G30G31G32  0  0
+          0  0  0  0  0  0  0  0  0  0  0  0  0  0  0  0  0
+          0  0  0  0  0  0  0  0  0  0  0  0  0  0  0  0  0
+          0  0  0  0  0  0  0  0  0  0  0  0  0  0  0  0  0
++         2  2  2  4  2  2  2  2  2  2  2  2  2  2  2  2  2
++         2  2  2  2  2  2  2  2  2  2  2  2  2  2  2  0  0
++         0  0  0  0  0  0  0  0  0  0  0  0  0  0  0  0  0
++         0  0  0  0  0  0  0  0  0  0  0  0  0  0  0  0  0
++         0  0  0  0  0  0  0  0  0  0  0  0  0  0  0  0  0
%c G  cc GPS ccc cccc cccc cccc cccc ccccc ccccc ccccc ccccc
%c cc cc ccc ccc cccc cccc cccc cccc ccccc ccccc ccccc ccccc
%f  1.2500000  1.025000000  0.00000000000  0.000000000000000
%f  0.0000000  0.000000000  0.00000000000  0.000000000000000
%i    0    0    0    0      0      0      0      0         0
%i    0    0    0    0      0      0      0      0         0
/* FINAL ORBIT COMBINATION FROM WEIGHTED AVERAGE OF:        
/* cod emr esa gfz grg jpl mit ngs sio                      
/* REFERENCED TO IGS TIME (IGST) AND TO WEIGHTED MEAN POLE: 
/* PCV:IGS08_1930 OL/AL:FES2004  NONE     Y  ORB:CMB CLK:CMB
*  2017  1  1  6  0  0.00000000
PG01  13545.189358 -14909.187312  17077.809473     45.442635  6  3  3 116       
PG02 -13932.316037  -9596.058127 -20082.547327    501.096824  5  6  3  95       
PG03  23126.804065 -12660.118642  -3155.504521   -104.647991  7  6  3 137       
PG04  15278.252302  -6043.560686  20422.421133 999999.999999
PG05 -22712.866338   -647.228398 -14000.546848    -68.809953  5  6  6 106       
PG06  -7776.745812 -20945.885412 -14343.316243    293.433841  7  4  6 103       
PG07   6758.537894 -24911.240709  -5063.601102    396.793670  6  7  7  86       
PG08  20529.349330    271.272326  16944.620103    -44.437523  4  4  5  80       
PG09   2699.656211 -16259.845001 -20854.199817    274.801551  6  4  5  98       
PG10   4387.370987  14694.794640  21693.579434   -115.066895  2  4  1 101       
PG11  13846.834189  -9455.306707  20041.143484   -668.834695  5  4  6 118       
PG12 -24086.910642  10701.235362  -2266.547676    389.173641  6  5  7 115       
PG13 -21937.224258 -10151.278899  10817.081567    -62.866708  5  9  5 123       
PG14  18555.866169  18874.222571   3314.991389    -52.124001  4  9  2 108       
PG15 -20804.444362   1434.235555  16495.429958   -339.188831  5  5  4 122       
PG16  22463.709346   2045.927008 -14445.018128     21.489284  3  4  5 115       
PG17 -13147.378478 -20381.253272  11377.664655   -195.543210  3  8  6 109       
PG18  -6866.802748  18604.715944  18124.221631    588.442297  4  8  4  98       
PG19 -17393.250490 -19319.144691   4323.040182   -516.803961  4  9  6 100       
PG20 -23075.495510  13153.041216    318.039602    453.435978  8  7  4 134       
PG21  -1986.452280  26370.652199    -98.939127   -526.929129  5  8  5 102       
PG22  24653.186308  -9634.523916   2962.970694    145.219267  7  6  4 105       
PG23  15742.035100  -6674.849680 -20210.980989   -201.418612  4  8  6 129       
PG24 -14331.786760  12238.534584  18553.034318    -28.384428  7  5  6 114       
PG25 -15236.722389  16831.961280 -13736.971291   -309.970885  5  5  5 116       
PG26  14904.781529   8742.338795 -20181.611281   -514.934505  5  3  3 117       
PG27  23198.650287  11576.182394   6177.051812    187.524616  3  4  2  91       
PG28   -257.508710 -15428.840602  22257.380788    578.691086  4  7  6  97       
PG29  -6073.349817  13928.441494 -21783.509496    635.646637  5  9  7  91       
PG30   -489.496489 -25630.197771   6720.353852    159.868915  8  4  9 105       
PG31   7947.412168  19815.462426 -15455.418744    227.718319  4  3  4 111       
PG32  13110.751611  19782.331531  11962.225703   -263.912379  4  5  4  77       
*  2017  1  1  6 15  0.00000000
PG01  13530.997910 -12830.063525  18712.517491     45.443633  6  3  3 109       
PG02 -13754.524954 -11917.269676 -18989.895486    501.091277  5  5  3  89       
PG03  23417.762100 -12511.508173   -311.030060   -104.649069  6  5  3 130       
PG04  15247.808003  -3577.872521  21026.062281 999999.999999
PG05 -21281.714082  -1587.002685 -16021.621017    -68.807860  4  7  6  69       
PG06  -7478.579566 -22440.741356 -12061.906448    293.438326  7  4  6 107       
PG07   6952.309178 -24124.181626  -7820.720068    396.790752  6  7  7 104       
PG08  21949.636947   1411.425879  14993.977900    -44.438101  4  3  4  88       
PG09   4742.474889 -14966.784526 -21450.625117    274.808211  5  4  5 121       
PG10   2160.262670  15735.180547  21287.396003   -115.065851  3  4  2 102       
PG11  14658.936369  -7138.130045  20406.445718   -668.833040  5  5  6 119       
PG12 -24230.447456  10557.122137    656.808054    389.173434  6  4  6 123       
PG13 -22635.693901 -11035.377013   8228.213071    -62.868653  5 10  5 124       
PG14  18015.916490  18737.904251   6098.208325    -52.125554  5  9  2 109       
PG15 -22248.267585    336.324337  14612.394250   -339.189652  4  6  5 127       
PG16  20885.246033   2772.488737 -16521.349983     21.490429  3  5  5 124       
PG17 -11955.650192 -19672.378890  13750.413323   -195.542619  3  9  7 111       
PG18  -8643.443194  19316.503993  16473.959771    588.444495  5  9  4  96       
PG19 -16714.644147 -19057.175634   7125.279666   -516.802984  5  9  7 111       
PG20 -23165.071440  12797.052709  -2463.385740    453.437475  8  6  4 131       
PG21  -2311.763759  26101.602591  -2914.124728   -526.928202  5  8  5 103       
PG22  24400.640439  -9108.538814   5677.989724    145.209317  7  6  4 111       
PG23  17582.854860  -5314.764773 -19117.029701   -201.419560  3  8  6 131       
PG24 -14376.098740  10014.061128  19825.786680    -28.385315  7  5  6 116       
PG25 -16595.990695  17285.399814 -11353.600417   -309.976975  5  4  4 110       
PG26  12824.817827   9861.610315 -21068.319703   -514.936368  5  4  2 112       
PG27  23540.631093  12047.960992   3376.243227    187.529606  4  5  3  84       
PG28   1958.520773 -16253.317238  21552.945402    578.693559  4  7  6  97       
PG29  -8070.415131  12419.440260 -22043.851215    635.644605  5  8  6 101       
PG30   -122.762544 -26200.209420   3968.230405    159.869487  9  4  8  96       
PG31   7572.018599  21455.407612 -13281.464600    227.716526  4  4  3 110       
PG32  11751.639867  19120.742680  14233.407890   -263.926125  4  5  4  70       
*  2017  1  1  6 30  0.00000000
PG01  13622.194075 -10586.536050  20019.978579     45.444614  6  3  3 112       
PG02 -13687.554307 -14094.486540 -17560.781025    501.085593  5  5  2  82       
PG03  23434.402303 -12221.142243   2538.802904   -104.650108  6  5  2 130       
PG04  15336.940124  -1067.348021  21253.613555 999999.999999
PG05 -19715.723277  -2703.619801 -17770.835453    -68.805919  4  8  6  90       
PG06  -7263.218668 -23678.850225  -9572.713196    293.442913  7  4  6 101       
PG07   7175.529553 -23039.972659 -10439.140777    396.787519  6  7  6 114       
PG08  23225.702196   2356.276042  12787.016422    -44.439003  3  2  3  85       
PG09   6888.745943 -13756.235889 -21678.878251    274.814784  5  4  5 116       
PG10     47.369785  16857.399327  20514.904791   -115.064770  2  4  2 104       
PG11  15572.216765  -4835.788936  20402.620356   -668.831370  5  5  5 118       
PG12 -24082.980671  10273.733649   3568.686964    389.173444  6  4  6 113       
PG13 -23140.037077 -11696.286232   5496.634913    -62.870386  6 10  5 125       
PG14  17220.084753  18452.119188   8778.117608    -52.127069  5  9  2 104       
PG15 -23539.823458   -586.140866  12479.551022   -339.191000  3  7  5 126       
PG16  19152.838185   3681.932277 -18320.091294     21.491700  4  6  5 122       
PG17 -10517.214459 -18891.563076  15893.186983   -195.541468  4  9  7 113       
PG18 -10220.289580  20008.474798  14548.313699    588.447182  5  9  4  88       
PG19 -15768.177700 -18646.965692   9801.646705   -516.802581  5  9  7 108       
PG20 -23013.868230  12272.002742  -5202.518291    453.439169  8  5  4 133       
PG21  -2661.533536  25529.396627  -5677.963688   -526.926799  5  8  5 108       
PG22  23917.088623  -8418.085112   8296.359980    145.199219  7  5  3  99       
PG23  19362.438179  -4123.389733 -17692.293045   -201.420764  3  7  5 130       
PG24 -14531.879363   7671.274385  20753.427814    -28.385023  7  5  6 119       
PG25 -17683.861864  17674.715150  -8773.878078   -309.983002  6  4  4 117       
PG26  10735.918154  11127.459523 -21592.628296   -514.938460  4  5  2 122       
PG27  23632.757407  12337.722729    517.961168    187.534637  4  5  3  94       
PG28   4036.938681 -17165.309272  20497.986267    578.696241  4  7  5  90       
PG29 -10154.405866  11018.077335 -21924.787234    635.642861  5  7  5  96       
PG30    190.182365 -26472.997012   1147.339384    159.870019  9  5  8  89       
PG31   7295.071622  22851.724221 -10873.320937    227.714416  4  5  2  99       
PG32  10150.575638  18407.097315  16260.078872   -263.939868  4  5  4  88       
EOF
